[{"OBJECT_NAME":"STARLINK-1593","OBJECT_ID":"2020-057C","EPOCH":"2026-03-10T00:00:02.999808","MEAN_MOTION":15.74657731,"ECCENTRICITY":0.00026845,"INCLINATION":53.0438,"RA_OF_ASC_NODE":268.8311,"ARG_OF_PERICENTER":147.5377,"MEAN_ANOMALY":277.5638,"EPHEMERIS_TYPE":0,"CLASSIFICATION_TYPE":"U","NORAD_CAT_ID":46119,"ELEMENT_SET_NO":999,"REV_AT_EPOCH":596,"BSTAR":0.0012691953,"MEAN_MOTION_DOT":0.00193505,"MEAN_MOTION_DDOT":0},{"OBJECT_NAME":"JILIN-1 GAOFEN 03D18","OBJECT_ID":"2022-019W","EPOCH":"2026-03-09T22:03:04.622400","MEAN_MOTION":15.76695092,"ECCENTRICITY":0.00043918,"INCLINATION":97.3672,"RA_OF_ASC_NODE":161.2344,"ARG_OF_PERICENTER":144.1291,"MEAN_ANOMALY":216.027,"EPHEMERIS_TYPE":0,"CLASSIFICATION_TYPE":"U","NORAD_CAT_ID":51844,"ELEMENT_SET_NO":999,"REV_AT_EPOCH":22438,"BSTAR":0.0011951386,"MEAN_MOTION_DOT":0.00194669,"MEAN_MOTION_DDOT":0}]
